{
    "links": {
        "self": "http://www.neowsapp.com/rest/v1/neo/3599865?api_key=iIulBulltgU6a56xZRHN4H3l9WmuAYTsLGpBGhQ2"
    },
    "id": "3599865",
    "neo_reference_id": "3599865",
    "name": "(2012 DJ31)",
    "designation": "2012 DJ31",
    "nasa_jpl_url": "http://ssd.jpl.nasa.gov/sbdb.cgi?sstr=3599865",
    "absolute_magnitude_h": 24.6,
    "estimated_diameter": {
        "kilometers": {
            "estimated_diameter_min": 0.0319561887,
            "estimated_diameter_max": 0.0714562102
        },
        "meters": {
            "estimated_diameter_min": 31.9561886721,
            "estimated_diameter_max": 71.4562101727
        },
        "miles": {
            "estimated_diameter_min": 0.0198566489,
            "estimated_diameter_max": 0.0444008168
        },
        "feet": {
            "estimated_diameter_min": 104.8431420431,
            "estimated_diameter_max": 234.436392583
        }
    },
    "is_potentially_hazardous_asteroid": false,
    "close_approach_data": [
        {
            "close_approach_date": "2012-03-05",
            "close_approach_date_full": "2012-Mar-05 05:19",
            "epoch_date_close_approach": 1330924740000,
            "relative_velocity": {
                "kilometers_per_second": "15.5431839976",
                "kilometers_per_hour": "55955.4623913233",
                "miles_per_hour": "34768.5482842086"
            },
            "miss_distance": {
                "astronomical": "0.0341802216",
                "lunar": "13.2961062024",
                "kilometers": "5113288.347487992",
                "miles": "3177250.0480866096"
            },
            "orbiting_body": "Earth"
        }
    ],
    "orbital_data": {
        "orbit_id": "6",
        "orbit_determination_date": "2017-04-06 08:50:49",
        "first_observation_date": "2012-02-24",
        "last_observation_date": "2012-03-01",
        "data_arc_in_days": 6,
        "observations_used": 27,
        "orbit_uncertainty": "8",
        "minimum_orbit_intersection": ".00689804",
        "jupiter_tisserand_invariant": "3.647",
        "epoch_osculation": "2455982.5",
        "eccentricity": ".5907432511984263",
        "semi_major_axis": "1.957911454086194",
        "inclination": ".9301115651544345",
        "ascending_node_longitude": "268.5035262696696",
        "orbital_period": "1000.663358663943",
        "perihelion_distance": ".8012884761406774",
        "perihelion_argument": "320.1770184300182",
        "aphelion_distance": "3.114534432031711",
        "perihelion_time": "2456033.571860197775",
        "mean_anomaly": "341.6263186695001",
        "mean_motion": ".3597613491920616",
        "equinox": "J2000",
        "orbit_class": {
            "orbit_class_type": "APO",
            "orbit_class_description": "Near-Earth asteroid orbits which cross the Earth’s orbit similar to that of 1862 Apollo",
            "orbit_class_range": "a (semi-major axis) > 1.0 AU; q (perihelion) < 1.017 AU"
        }
    },
    "is_sentry_object": false
}